{"fetched_at":"2026-03-29T02:12:04Z","count":15717,"tles":[{"name":"STARLINK-30362","line1":"1 57745U 23131P   26087.00882627  .00000445  00000+0  26275-4 0  9992","line2":"2 57745  43.0033  69.3749 0001191 275.1376  84.9339 15.26740496142719","category":"Starlink"}]}