{
  "norad_id": 57745,
  "name": "STARLINK-30362",
  "history": [
    {
      "epoch": "2026-03-28T00:12:42.589728",
      "apogee_km": 486.3820407122903,
      "perigee_km": 484.7460089360129,
      "latitude_deg": 36.42897751009707,
      "longitude_deg": -44.652678079903126,
      "semi_major_axis_km": 6863.701024824151,
      "eccentricity": 0.00011918,
      "inclination_deg": 43.0033,
      "raan_deg": 69.3749,
      "arg_perigee_deg": 275.1376,
      "mean_anomaly_deg": 84.9339,
      "mean_motion_rev_day": 15.26740496
    }
  ]
}